CCSDS_OMM_VERS = 2.0
CREATION_DATE  = 
ORIGINATOR     = 

OBJECT_NAME    = UNKNOWN
OBJECT_ID      = 
CENTER_NAME    = EARTH
REF_FRAME      = TEME
TIME_SYSTEM    = UTC
MEAN_ELEMENT_THEORY = SGP/SGP4

EPOCH          = 2026-03-30T15:07:08.097312
MEAN_MOTION    = 13.15723007
ECCENTRICITY   = .0451211
INCLINATION    = 66.9381
RA_OF_ASC_NODE = 322.9427
ARG_OF_PERICENTER = 96.1221
MEAN_ANOMALY   = 269.1407

EPHEMERIS_TYPE = 0
CLASSIFICATION_TYPE = U
NORAD_CAT_ID   = 82363
ELEMENT_SET_NO = 999
REV_AT_EPOCH   = 30445
BSTAR          = .18281E-2
MEAN_MOTION_DOT = .11E-4
MEAN_MOTION_DDOT = 0

CCSDS_OMM_VERS = 2.0
CREATION_DATE  = 
ORIGINATOR     = 

OBJECT_NAME    = UNKNOWN
OBJECT_ID      = 
CENTER_NAME    = EARTH
REF_FRAME      = TEME
TIME_SYSTEM    = UTC
MEAN_ELEMENT_THEORY = SGP/SGP4

EPOCH          = 2026-03-28T19:09:21.939840
MEAN_MOTION    = 13.98234539
ECCENTRICITY   = .0083803
INCLINATION    = 98.8938
RA_OF_ASC_NODE = 104.6572
ARG_OF_PERICENTER = 46.3000
MEAN_ANOMALY   = 314.5067

EPHEMERIS_TYPE = 0
CLASSIFICATION_TYPE = U
NORAD_CAT_ID   = 82369
ELEMENT_SET_NO = 999
REV_AT_EPOCH   = 57199
BSTAR          = .55497E-4
MEAN_MOTION_DOT = .39E-6
MEAN_MOTION_DDOT = 0

CCSDS_OMM_VERS = 2.0
CREATION_DATE  = 
ORIGINATOR     = 

OBJECT_NAME    = UNKNOWN
OBJECT_ID      = 
CENTER_NAME    = EARTH
REF_FRAME      = TEME
TIME_SYSTEM    = UTC
MEAN_ELEMENT_THEORY = SGP/SGP4

EPOCH          = 2026-03-30T14:14:51.398016
MEAN_MOTION    = 14.86855408
ECCENTRICITY   = .0007804
INCLINATION    = 98.3904
RA_OF_ASC_NODE = 324.8746
ARG_OF_PERICENTER = 143.5773
MEAN_ANOMALY   = 216.5973

EPHEMERIS_TYPE = 0
CLASSIFICATION_TYPE = U
NORAD_CAT_ID   = 82381
ELEMENT_SET_NO = 999
REV_AT_EPOCH   = 52680
BSTAR          = .38467E-2
MEAN_MOTION_DOT = .34445E-3
MEAN_MOTION_DDOT = 0

CCSDS_OMM_VERS = 2.0
CREATION_DATE  = 
ORIGINATOR     = 

OBJECT_NAME    = UNKNOWN
OBJECT_ID      = 
CENTER_NAME    = EARTH
REF_FRAME      = TEME
TIME_SYSTEM    = UTC
MEAN_ELEMENT_THEORY = SGP/SGP4

EPOCH          = 2026-03-29T01:38:22.801344
MEAN_MOTION    = 15.05089085
ECCENTRICITY   = .0009435
INCLINATION    = 86.6589
RA_OF_ASC_NODE = 109.6089
ARG_OF_PERICENTER = 121.5263
MEAN_ANOMALY   = 238.6896

EPHEMERIS_TYPE = 0
CLASSIFICATION_TYPE = U
NORAD_CAT_ID   = 82402
ELEMENT_SET_NO = 999
REV_AT_EPOCH   = 47045
BSTAR          = .51113E-3
MEAN_MOTION_DOT = .7305E-4
MEAN_MOTION_DDOT = 0

CCSDS_OMM_VERS = 2.0
CREATION_DATE  = 
ORIGINATOR     = 

OBJECT_NAME    = UNKNOWN
OBJECT_ID      = 
CENTER_NAME    = EARTH
REF_FRAME      = TEME
TIME_SYSTEM    = UTC
MEAN_ELEMENT_THEORY = SGP/SGP4

EPOCH          = 2026-03-26T03:26:59.749440
MEAN_MOTION    = 14.59007806
ECCENTRICITY   = .0057389
INCLINATION    = 74.0054
RA_OF_ASC_NODE = 143.2911
ARG_OF_PERICENTER = 281.9385
MEAN_ANOMALY   = 77.5350

EPHEMERIS_TYPE = 0
CLASSIFICATION_TYPE = U
NORAD_CAT_ID   = 82432
ELEMENT_SET_NO = 999
REV_AT_EPOCH   = 49798
BSTAR          = .31017E-3
MEAN_MOTION_DOT = .1459E-4
MEAN_MOTION_DDOT = 0

CCSDS_OMM_VERS = 2.0
CREATION_DATE  = 
ORIGINATOR     = 

OBJECT_NAME    = UNKNOWN
OBJECT_ID      = 
CENTER_NAME    = EARTH
REF_FRAME      = TEME
TIME_SYSTEM    = UTC
MEAN_ELEMENT_THEORY = SGP/SGP4

EPOCH          = 2026-03-30T02:22:55.128288
MEAN_MOTION    = 15.05376640
ECCENTRICITY   = .0007352
INCLINATION    = 85.8751
RA_OF_ASC_NODE = 141.9197
ARG_OF_PERICENTER = 219.7725
MEAN_ANOMALY   = 140.2971

EPHEMERIS_TYPE = 0
CLASSIFICATION_TYPE = U
NORAD_CAT_ID   = 82448
ELEMENT_SET_NO = 999
REV_AT_EPOCH   = 45318
BSTAR          = .53546E-3
MEAN_MOTION_DOT = .7708E-4
MEAN_MOTION_DDOT = 0

CCSDS_OMM_VERS = 2.0
CREATION_DATE  = 
ORIGINATOR     = 

OBJECT_NAME    = UNKNOWN
OBJECT_ID      = 
CENTER_NAME    = EARTH
REF_FRAME      = TEME
TIME_SYSTEM    = UTC
MEAN_ELEMENT_THEORY = SGP/SGP4

EPOCH          = 2026-03-29T02:45:39.355776
MEAN_MOTION    = 12.39712859
ECCENTRICITY   = .0094155
INCLINATION    = 102.1958
RA_OF_ASC_NODE = 49.4804
ARG_OF_PERICENTER = 11.1924
MEAN_ANOMALY   = 349.1205

EPHEMERIS_TYPE = 0
CLASSIFICATION_TYPE = U
NORAD_CAT_ID   = 82453
ELEMENT_SET_NO = 999
REV_AT_EPOCH   = 55924
BSTAR          = .39149E-3
MEAN_MOTION_DOT = .7E-7
MEAN_MOTION_DDOT = 0

CCSDS_OMM_VERS = 2.0
CREATION_DATE  = 
ORIGINATOR     = 

OBJECT_NAME    = UNKNOWN
OBJECT_ID      = 
CENTER_NAME    = EARTH
REF_FRAME      = TEME
TIME_SYSTEM    = UTC
MEAN_ELEMENT_THEORY = SGP/SGP4

EPOCH          = 2026-03-28T18:50:24.602208
MEAN_MOTION    = 13.55842948
ECCENTRICITY   = .0043684
INCLINATION    = 99.3479
RA_OF_ASC_NODE = 108.9333
ARG_OF_PERICENTER = 285.4417
MEAN_ANOMALY   = 74.1899

EPHEMERIS_TYPE = 0
CLASSIFICATION_TYPE = U
NORAD_CAT_ID   = 82484
ELEMENT_SET_NO = 999
REV_AT_EPOCH   = 60500
BSTAR          = .37022E-3
MEAN_MOTION_DOT = .218E-5
MEAN_MOTION_DDOT = 0

CCSDS_OMM_VERS = 2.0
CREATION_DATE  = 
ORIGINATOR     = 

OBJECT_NAME    = UNKNOWN
OBJECT_ID      = 
CENTER_NAME    = EARTH
REF_FRAME      = TEME
TIME_SYSTEM    = UTC
MEAN_ELEMENT_THEORY = SGP/SGP4

EPOCH          = 2026-03-30T14:41:58.320384
MEAN_MOTION    = 14.90802657
ECCENTRICITY   = .0009211
INCLINATION    = 74.0061
RA_OF_ASC_NODE = 166.1364
ARG_OF_PERICENTER = 290.0904
MEAN_ANOMALY   = 69.9287

EPHEMERIS_TYPE = 0
CLASSIFICATION_TYPE = U
NORAD_CAT_ID   = 82494
ELEMENT_SET_NO = 999
REV_AT_EPOCH   = 10101
BSTAR          = .25046E-2
MEAN_MOTION_DOT = .24717E-3
MEAN_MOTION_DDOT = 0

CCSDS_OMM_VERS = 2.0
CREATION_DATE  = 
ORIGINATOR     = 

OBJECT_NAME    = UNKNOWN
OBJECT_ID      = 
CENTER_NAME    = EARTH
REF_FRAME      = TEME
TIME_SYSTEM    = UTC
MEAN_ELEMENT_THEORY = SGP/SGP4

EPOCH          = 2026-03-30T09:47:36.206880
MEAN_MOTION    = 14.19362426
ECCENTRICITY   = .012113
INCLINATION    = 70.9649
RA_OF_ASC_NODE = 135.8098
ARG_OF_PERICENTER = 309.3428
MEAN_ANOMALY   = 49.7009

EPHEMERIS_TYPE = 0
CLASSIFICATION_TYPE = U
NORAD_CAT_ID   = 82500
ELEMENT_SET_NO = 999
REV_AT_EPOCH   = 63422
BSTAR          = .16881E-2
MEAN_MOTION_DOT = .3771E-4
MEAN_MOTION_DDOT = 0

CCSDS_OMM_VERS = 2.0
CREATION_DATE  = 
ORIGINATOR     = 

OBJECT_NAME    = UNKNOWN
OBJECT_ID      = 
CENTER_NAME    = EARTH
REF_FRAME      = TEME
TIME_SYSTEM    = UTC
MEAN_ELEMENT_THEORY = SGP/SGP4

EPOCH          = 2026-03-30T02:38:22.439616
MEAN_MOTION    = 14.36174335
ECCENTRICITY   = .01328
INCLINATION    = 73.2810
RA_OF_ASC_NODE = 335.6153
ARG_OF_PERICENTER = 100.1683
MEAN_ANOMALY   = 48.5375

EPHEMERIS_TYPE = 0
CLASSIFICATION_TYPE = U
NORAD_CAT_ID   = 82524
ELEMENT_SET_NO = 999
REV_AT_EPOCH   = 59244
BSTAR          = .14706E-2
MEAN_MOTION_DOT = .4713E-4
MEAN_MOTION_DDOT = 0

CCSDS_OMM_VERS = 2.0
CREATION_DATE  = 
ORIGINATOR     = 

OBJECT_NAME    = UNKNOWN
OBJECT_ID      = 
CENTER_NAME    = EARTH
REF_FRAME      = TEME
TIME_SYSTEM    = UTC
MEAN_ELEMENT_THEORY = SGP/SGP4

EPOCH          = 2026-03-20T17:10:56.256960
MEAN_MOTION    = 13.41206174
ECCENTRICITY   = .0237659
INCLINATION    = 99.7774
RA_OF_ASC_NODE = 164.9843
ARG_OF_PERICENTER = 1.9224
MEAN_ANOMALY   = 150.6955

EPHEMERIS_TYPE = 0
CLASSIFICATION_TYPE = U
NORAD_CAT_ID   = 82529
ELEMENT_SET_NO = 999
REV_AT_EPOCH   = 60287
BSTAR          = .70169E-3
MEAN_MOTION_DOT = .416E-5
MEAN_MOTION_DDOT = 0

