UNKNOWN                 
1 82363U          26089.62995483  .00001100  00000+0  18281-2 0  9996
2 82363  66.9381 322.9427 0451211  96.1221 269.1407 13.15723007304455
UNKNOWN                 
1 82369U          26087.79817060  .00000039  00000+0  55497-4 0  9994
2 82369  98.8938 104.6572 0083803  46.3000 314.5067 13.98234539571999
UNKNOWN                 
1 82381U          26089.59365044  .00034445  00000+0  38467-2 0  9992
2 82381  98.3904 324.8746 0007804 143.5773 216.5973 14.86855408526803
UNKNOWN                 
1 82402U          26088.06831946  .00007305  00000+0  51113-3 0  9995
2 82402  86.6589 109.6089 0009435 121.5263 238.6896 15.05089085470457
UNKNOWN                 
1 82432U          26085.14374710  .00001459  00000+0  31017-3 0  9990
2 82432  74.0054 143.2911 0057389 281.9385  77.5350 14.59007806497984
UNKNOWN                 
1 82448U          26089.09924917  .00007708  00000+0  53546-3 0  9999
2 82448  85.8751 141.9197 0007352 219.7725 140.2971 15.05376640453186
UNKNOWN                 
1 82453U          26088.11503884  .00000007  00000+0  39149-3 0  9991
2 82453 102.1958  49.4804 0094155  11.1924 349.1205 12.39712859559247
UNKNOWN                 
1 82484U          26087.78500697  .00000218  00000+0  37022-3 0  9998
2 82484  99.3479 108.9333 0043684 285.4417  74.1899 13.55842948605000
UNKNOWN                 
1 82494U          26089.61248056  .00024717  00000+0  25046-2 0  9993
2 82494  74.0061 166.1364 0009211 290.0904  69.9287 14.90802657101017
UNKNOWN                 
1 82500U          26089.40805795  .00003771  00000+0  16881-2 0  9991
2 82500  70.9649 135.8098 0121130 309.3428  49.7009 14.19362426634227
UNKNOWN                 
1 82524U          26089.10998194  .00004713  00000+0  14706-2 0  9991
2 82524  73.2810 335.6153 0132800 100.1683  48.5375 14.36174335592446
UNKNOWN                 
1 82529U          26079.71592890  .00000416  00000+0  70169-3 0  9997
2 82529  99.7774 164.9843 0237659   1.9224 150.6955 13.41206174602879
